$$SOE
2460721.500000000, A.D. 2025-Feb-15 00:00:00.0000, 3.108479534017869E+08, -1.474677243747106E+08, 1.481519037753265E+07,
2460728.500000000, A.D. 2025-Feb-22 00:00:00.0000, 3.147350083982872E+08, -1.364257185424018E+08, 1.475298386911027E+07,
2460735.500000000, A.D. 2025-Mar-01 00:00:00.0000, 3.182446122702307E+08, -1.252201649988205E+08, 1.467308402897997E+07,
2460742.500000000, A.D. 2025-Mar-08 00:00:00.0000, 3.213690723420269E+08, -1.138631297240083E+08, 1.457542561055670E+07,
2460749.500000000, A.D. 2025-Mar-15 00:00:00.0000, 3.241010013263734E+08, -1.023670759058925E+08, 1.445996276938505E+07,
2460756.500000000, A.D. 2025-Mar-22 00:00:00.0000, 3.264333362726492E+08, -9.074486322904299E+07, 1.432667011868462E+07,
2460763.500000000, A.D. 2025-Mar-29 00:00:00.0000, 3.283593597675411E+08, -7.900974841680060E+07, 1.417554349078172E+07,
2460770.500000000, A.D. 2025-Apr-05 00:00:00.0000, 3.298727236885392E+08, -6.717538378201631E+07, 1.400660062750225E+07,
2460777.500000000, A.D. 2025-Apr-12 00:00:00.0000, 3.309674735547181E+08, -5.525581357411987E+07, 1.381988198135685E+07,
2460784.500000000, A.D. 2025-Apr-19 00:00:00.0000, 3.316380732482481E+08, -4.326546889338753E+07, 1.361545156888169E+07,
2460791.500000000, A.D. 2025-Apr-26 00:00:00.0000, 3.318794303277430E+08, -3.121916126206839E+07, 1.339339783028328E+07,
2460798.500000000, A.D. 2025-May-03 00:00:00.0000, 3.316869219850997E+08, -1.913207471753051E+07, 1.315383448173197E+07,
2460805.500000000, A.D. 2025-May-10 00:00:00.0000, 3.310564216005741E+08, -7.019756301828974E+06, 1.289690135321103E+07,
2460812.500000000, A.D. 2025-May-17 00:00:00.0000, 3.299843258467962E+08, 5.101895127999002E+06, 1.262276519965810E+07,
2460819.500000000, A.D. 2025-May-24 00:00:00.0000, 3.284675824158215E+08, 1.721664182849128E+07, 1.233162045879823E+07,
2460826.500000000, A.D. 2025-May-31 00:00:00.0000, 3.265037186681384E+08, 2.930792225865788E+07, 1.202368993526169E+07,
2460833.500000000, A.D. 2025-Jun-07 00:00:00.0000, 3.240908706655254E+08, 4.135886964622112E+07, 1.169922553850866E+07,
2460840.500000000, A.D. 2025-Jun-14 00:00:00.0000, 3.212278100827396E+08, 5.335233347405159E+07, 1.135850923097099E+07,
2460847.500000000, A.D. 2025-Jun-21 00:00:00.0000, 3.179139700623415E+08, 6.527090070833378E+07, 1.100185380027632E+07,
2460854.500000000, A.D. 2025-Jun-28 00:00:00.0000, 3.141494729598764E+08, 7.709691861628477E+07, 1.062960330344538E+07,
2460861.500000000, A.D. 2025-Jul-05 00:00:00.0000, 3.099351582664602E+08, 8.881252140720226E+07, 1.024213348955321E+07,
2460868.500000000, A.D. 2025-Jul-12 00:00:00.0000, 3.052726093121886E+08, 1.003996599542631E+08, 9.839852235807605E+06,
2460875.500000000, A.D. 2025-Jul-19 00:00:00.0000, 3.001641787204862E+08, 1.118401340649254E+08, 9.423199923574790E+06,
2460882.500000000, A.D. 2025-Jul-26 00:00:00.0000, 2.946130125866619E+08, 1.231156272634259E+08, 8.992649720306404E+06,
2460889.500000000, A.D. 2025-Aug-02 00:00:00.0000, 2.886230731895653E+08, 1.342077441034484E+08, 8.548707751799665E+06,
2460896.500000000, A.D. 2025-Aug-09 00:00:00.0000, 2.821991599847494E+08, 1.450980499727921E+08, 8.091913149866760E+06,
2460903.500000000, A.D. 2025-Aug-16 00:00:00.0000, 2.753469286726111E+08, 1.557681132874329E+08, 7.622837953222416E+06,
2460910.500000000, A.D. 2025-Aug-23 00:00:00.0000, 2.680729083563731E+08, 1.661995500317098E+08, 7.142086828599147E+06,
2460917.500000000, A.D. 2025-Aug-30 00:00:00.0000, 2.603845168485536E+08, 1.763740712626944E+08, 6.650296633386299E+06,
2460924.500000000, A.D. 2025-Sep-06 00:00:00.0000, 2.522900724288876E+08, 1.862735344410842E+08, 6.148136024242111E+06,
2460931.500000000, A.D. 2025-Sep-13 00:00:00.0000, 2.437988001062930E+08, 1.958799959433555E+08, 5.636305056453511E+06,
2460938.500000000, A.D. 2025-Sep-20 00:00:00.0000, 2.349208354004158E+08, 2.051757629108389E+08, 5.115534333157837E+06,
2460945.500000000, A.D. 2025-Sep-27 00:00:00.0000, 2.256672264396144E+08, 2.141434473012343E+08, 4.586583854307488E+06,
2460952.500000000, A.D. 2025-Oct-04 00:00:00.0000, 2.160499321048678E+08, 2.227660224075503E+08, 4.050241789604485E+06,
2460959.500000000, A.D. 2025-Oct-11 00:00:00.0000, 2.060818156178339E+08, 2.310268805983605E+08, 3.507323129966989E+06,
2460966.500000000, A.D. 2025-Oct-18 00:00:00.0000, 1.957766336567753E+08, 2.389098916696815E+08, 2.958668167982996E+06,
2460973.500000000, A.D. 2025-Oct-25 00:00:00.0000, 1.851490209710609E+08, 2.463994614535539E+08, 2.405140795984611E+06,
2460980.500000000, A.D. 2025-Nov-01 00:00:00.0000, 1.742144704005640E+08, 2.534805903048842E+08, 1.847626621691346E+06,
2460987.500000000, A.D. 2025-Nov-08 00:00:00.0000, 1.629893082415900E+08, 2.601389310161270E+08, 1.287030899860576E+06,
2460994.500000000, A.D. 2025-Nov-15 00:00:00.0000, 1.514906650581454E+08, 2.663608456607697E+08, 7.242762677707374E+05,
2461001.500000000, A.D. 2025-Nov-22 00:00:00.0000, 1.397364423396794E+08, 2.721334611292597E+08, 1.603002737510204E+05,
2461008.500000000, A.D. 2025-Nov-29 00:00:00.0000, 1.277452749025302E+08, 2.774447240225258E+08, -4.039471848776639E+05,
2461015.500000000, A.D. 2025-Dec-06 00:00:00.0000, 1.155364868515073E+08, 2.822834542786095E+08, -9.675063048896343E+05,
2461022.500000000, A.D. 2025-Dec-13 00:00:00.0000, 1.031300416642857E+08, 2.866393936870593E+08, -1.529409999739915E+06,
2461029.500000000, A.D. 2025-Dec-20 00:00:00.0000, 9.054649009115912E+07, 2.905032498778428E+08, -2.088686921040371E+06,
2461036.500000000, A.D. 2025-Dec-27 00:00:00.0000, 7.780691505893895E+07, 2.938667379461063E+08, -2.644364551314145E+06,
2461043.500000000, A.D. 2026-Jan-03 00:00:00.0000, 6.493287242885087E+07, 2.967226186878031E+08, -3.195472264439493E+06,
2461050.500000000, A.D. 2026-Jan-10 00:00:00.0000, 5.194632808029914E+07, 2.990647323927585E+08, -3.741044397950977E+06,
2461057.500000000, A.D. 2026-Jan-17 00:00:00.0000, 3.886959196321905E+07, 3.008880277643657E+08, -4.280123343976140E+06,
2461064.500000000, A.D. 2026-Jan-24 00:00:00.0000, 2.572524964653992E+07, 3.021885856897792E+08, -4.811762641392514E+06,
2461071.500000000, A.D. 2026-Jan-31 00:00:00.0000, 1.253609186851648E+07, 3.029636376021279E+08, -5.335030048741311E+06,
2461078.500000000, A.D. 2026-Feb-07 00:00:00.0000, -6.749573405555419E+05, 3.032115781802607E+08, -5.849010584773421E+06,
2461085.500000000, A.D. 2026-Feb-14 00:00:00.0000, -1.388491318116116E+07, 3.029319722321188E+08, -6.352809537753865E+06,
2461092.500000000, A.D. 2026-Feb-21 00:00:00.0000, -2.707080232413792E+07, 3.021255562635186E+08, -6.845555409230992E+06,
2461099.500000000, A.D. 2026-Feb-28 00:00:00.0000, -4.020973540281831E+07, 3.007942358788856E+08, -7.326402577738896E+06,
2461106.500000000, A.D. 2026-Mar-07 00:00:00.0000, -5.327898126063710E+07, 2.989410771109753E+08, -7.794533633402169E+06,
2461113.500000000, A.D. 2026-Mar-14 00:00:00.0000, -6.625603964372520E+07, 2.965702894398467E+08, -8.249161807409346E+06,
2461120.500000000, A.D. 2026-Mar-21 00:00:00.0000, -7.911871004875530E+07, 2.936872035770283E+08, -8.689533405846149E+06,
2461127.500000000, A.D. 2026-Mar-28 00:00:00.0000, -9.184515823809798E+07, 2.902982452815584E+08, -9.114929966511026E+06,
2461134.500000000, A.D. 2026-Apr-04 00:00:00.0000, -1.044139805614799E+08, 2.864109045174397E+08, -9.524670149478272E+06,
2461141.500000000, A.D. 2026-Apr-11 00:00:00.0000, -1.168042653893600E+08, 2.820336999161917E+08, -9.918111405302122E+06,
2461148.500000000, A.D. 2026-Apr-18 00:00:00.0000, -1.289956511216145E+08, 2.771761389066312E+08, -1.029465142847636E+07,
2461155.500000000, A.D. 2026-Apr-25 00:00:00.0000, -1.409683803943962E+08, 2.718486739321586E+08, -1.065372939461949E+07,
2461162.500000000, A.D. 2026-May-02 00:00:00.0000, -1.527033501698117E+08, 2.660626551593368E+08, -1.099482698473464E+07,
2461169.500000000, A.D. 2026-May-09 00:00:00.0000, -1.641821573457693E+08, 2.598302800612493E+08, -1.131746921317390E+07,
2461176.500000000, A.D. 2026-May-16 00:00:00.0000, -1.753871393203634E+08, 2.531645404672153E+08, -1.162122508287436E+07,
2461183.500000000, A.D. 2026-May-23 00:00:00.0000, -1.863014093324738E+08, 2.460791685521286E+08, -1.190570798990576E+07,
2461190.500000000, A.D. 2026-May-30 00:00:00.0000, -1.969088886002474E+08, 2.385885825425437E+08, -1.217057566516678E+07,
2461197.500000000, A.D. 2026-Jun-06 00:00:00.0000, -2.071943355704326E+08, 2.307078293336110E+08, -1.241552990122747E+07,
2461204.500000000, A.D. 2026-Jun-13 00:00:00.0000, -2.171433686442978E+08, 2.224525246663870E+08, -1.264031639458437E+07,
2461211.500000000, A.D. 2026-Jun-20 00:00:00.0000, -2.267424829654831E+08, 2.138387942253511E+08, -1.284472443138300E+07,
2461218.500000000, A.D. 2026-Jun-27 00:00:00.0000, -2.359790630885976E+08, 2.048832157369984E+08, -1.302858630450661E+07,
2461225.500000000, A.D. 2026-Jul-04 00:00:00.0000, -2.448413916745954E+08, 1.956027616772193E+08, -1.319177653921639E+07,
2461232.500000000, A.D. 2026-Jul-11 00:00:00.0000, -2.533186541395839E+08, 1.860147427998263E+08, -1.333421097456110E+07,
2461239.500000000, A.D. 2026-Jul-18 00:00:00.0000, -2.614009393765329E+08, 1.761367528244994E+08, -1.345584572084703E+07,
2461246.500000000, A.D. 2026-Jul-25 00:00:00.0000, -2.690792367618107E+08, 1.659866145676400E+08, -1.355667600965958E+07,
2461253.500000000, A.D. 2026-Aug-01 00:00:00.0000, -2.763454296528788E+08, 1.555823277155296E+08, -1.363673495943061E+07,
2461260.500000000, A.D. 2026-Aug-08 00:00:00.0000, -2.831922854294944E+08, 1.449420184173220E+08, -1.369609229367706E+07,
2461267.500000000, A.D. 2026-Aug-15 00:00:00.0000, -2.896134419386445E+08, 1.340838913271763E+08, -1.373485302720897E+07,
2461274.500000000, A.D. 2026-Aug-22 00:00:00.0000, -2.956033913847223E+08, 1.230261854613616E+08, -1.375315596431260E+07,
2461281.500000000, A.D. 2026-Aug-29 00:00:00.0000, -3.011574642400022E+08, 1.117871326112843E+08, -1.375117192502032E+07,
2461288.500000000, A.D. 2026-Sep-05 00:00:00.0000, -3.062718113246387E+08, 1.003849155332144E+08, -1.372910214290527E+07,
$$EOE